{"type": "FeatureCollection", "features": [ {"type": "Feature", "properties": {"norad_id": 67113, "name": "STARLINK-35789", "group": "last-30-days", "lat": -16.557256859458523, "lon": 65.46191949748315, "alt_km": 344.339100393996, "timestamp": "2025-12-27T09:28:55.187327+00:00", "meta": {"OBJECT_NAME": "STARLINK-35789", "OBJECT_ID": "2025-299M", "EPOCH": "2025-12-27T04:00:01.998720", "MEAN_MOTION": 15.76418364, "ECCENTRICITY": 0.0001862, "INCLINATION": 42.9987, "RA_OF_ASC_NODE": 228.2435, "ARG_OF_PERICENTER": 270.0921, "MEAN_ANOMALY": 77.1851, "EPHEMERIS_TYPE": 0, "CLASSIFICATION_TYPE": "U", "NORAD_CAT_ID": 67113, "ELEMENT_SET_NO": 999, "REV_AT_EPOCH": 302, "BSTAR": -0.012377, "MEAN_MOTION_DOT": -0.01776116, "MEAN_MOTION_DDOT": 0}, "tle": {"line1": "1 67113U 25299M   25361.16668980 -.01776116  00000+0 -12377-1 0  9997", "line2": "2 67113  42.9987 228.2435 0001862 270.0921  77.1851 15.76418364  3022"}}, "geometry": {"type": "Point", "coordinates": [65.46191949748315, -16.557256859458523]}}, {"type": "Feature", "properties": {"norad_id": 67114, "name": "STARLINK-36180", "group": "last-30-days", "lat": -17.74601827967044, "lon": 66.93844802205959, "alt_km": 344.37978535849015, "timestamp": "2025-12-27T09:28:55.187337+00:00", "meta": {"OBJECT_NAME": "STARLINK-36180", "OBJECT_ID": "2025-299N", "EPOCH": "2025-12-27T04:00:01.998720", "MEAN_MOTION": 15.7642244, "ECCENTRICITY": 0.0001728, "INCLINATION": 42.9987, "RA_OF_ASC_NODE": 228.239, "ARG_OF_PERICENTER": 267.3858, "MEAN_ANOMALY": 81.7354, "EPHEMERIS_TYPE": 0, "CLASSIFICATION_TYPE": "U", "NORAD_CAT_ID": 67114, "ELEMENT_SET_NO": 999, "REV_AT_EPOCH": 312, "BSTAR": -0.012385, "MEAN_MOTION_DOT": -0.01777324, "MEAN_MOTION_DDOT": 0}, "tle": {"line1": "1 67114U 25299N   25361.16668980 -.01777324  00000+0 -12385-1 0  9999", "line2": "2 67114  42.9987 228.2390 0001728 267.3858  81.7354 15.76422440  3122"}}, "geometry": {"type": "Point", "coordinates": [66.93844802205959, -17.74601827967044]}}, {"type": "Feature", "properties": {"norad_id": 67115, "name": "STARLINK-35892", "group": "last-30-days", "lat": -18.815618255877144, "lon": 68.29575291786325, "alt_km": 344.40543721027007, "timestamp": "2025-12-27T09:28:55.187349+00:00", "meta": {"OBJECT_NAME": "STARLINK-35892", "OBJECT_ID": "2025-299P", "EPOCH": "2025-12-27T04:00:01.998720", "MEAN_MOTION": 15.76433111, "ECCENTRICITY": 0.0001734, "INCLINATION": 42.9987, "RA_OF_ASC_NODE": 228.2346, "ARG_OF_PERICENTER": 267.004, "MEAN_ANOMALY": 83.7876, "EPHEMERIS_TYPE": 0, "CLASSIFICATION_TYPE": "U", "NORAD_CAT_ID": 67115, "ELEMENT_SET_NO": 999, "REV_AT_EPOCH": 302, "BSTAR": -0.012393, "MEAN_MOTION_DOT": -0.01779068, "MEAN_MOTION_DDOT": 0}, "tle": {"line1": "1 67115U 25299P   25361.16668980 -.01779068  00000+0 -12393-1 0  9996", "line2": "2 67115  42.9987 228.2346 0001734 267.0040  83.7876 15.76433111  3028"}}, "geometry": {"type": "Point", "coordinates": [68.29575291786325, -18.815618255877144]}}, {"type": "Feature", "properties": {"norad_id": 67116, "name": "STARLINK-35738", "group": "last-30-days", "lat": -20.00184080124835, "lon": 69.83699015400917, "alt_km": 344.54630732089845, "timestamp": "2025-12-27T09:28:55.187359+00:00", "meta": {"OBJECT_NAME": "STARLINK-35738", "OBJECT_ID": "2025-299Q", "EPOCH": "2025-12-27T04:00:01.998720", "MEAN_MOTION": 15.76425818, "ECCENTRICITY": 0.0001859, "INCLINATION": 42.9987, "RA_OF_ASC_NODE": 228.2298, "ARG_OF_PERICENTER": 272.3878, "MEAN_ANOMALY": 80.2895, "EPHEMERIS_TYPE": 0, "CLASSIFICATION_TYPE": "U", "NORAD_CAT_ID": 67116, "ELEMENT_SET_NO": 999, "REV_AT_EPOCH": 302, "BSTAR": -0.012287, "MEAN_MOTION_DOT": -0.01765351, "MEAN_MOTION_DDOT": 0}, "tle": {"line1": "1 67116U 25299Q   25361.16668980 -.01765351  00000+0 -12287-1 0  9999", "line2": "2 67116  42.9987 228.2298 0001859 272.3878  80.2895 15.76425818  3029"}}, "geometry": {"type": "Point", "coordinates": [69.83699015400917, -20.00184080124835]}}, {"type": "Feature", "properties": {"norad_id": 67117, "name": "STARLINK-35674", "group": "last-30-days", "lat": -21.100113485472075, "lon": 71.30156188263857, "alt_km": 344.5243103092944, "timestamp": "2025-12-27T09:28:55.187369+00:00", "meta": {"OBJECT_NAME": "STARLINK-35674", "OBJECT_ID": "2025-299R", "EPOCH": "2025-12-27T04:00:01.998720", "MEAN_MOTION": 15.76440416, "ECCENTRICITY": 0.0001835, "INCLINATION": 42.9988, "RA_OF_ASC_NODE": 228.2259, "ARG_OF_PERICENTER": 269.561, "MEAN_ANOMALY": 84.8669, "EPHEMERIS_TYPE": 0, "CLASSIFICATION_TYPE": "U", "NORAD_CAT_ID": 67117, "ELEMENT_SET_NO": 999, "REV_AT_EPOCH": 292, "BSTAR": -0.01237, "MEAN_MOTION_DOT": -0.01776797, "MEAN_MOTION_DDOT": 0}, "tle": {"line1": "1 67117U 25299R   25361.16668980 -.01776797  00000+0 -12370-1 0  9999", "line2": "2 67117  42.9988 228.2259 0001835 269.5610  84.8669 15.76440416  2922"}}, "geometry": {"type": "Point", "coordinates": [71.30156188263857, -21.100113485472075]}}, {"type": "Feature", "properties": {"norad_id": 67118, "name": "STARLINK-35701", "group": "last-30-days", "lat": -22.20065704991501, "lon": 72.80811601777903, "alt_km": 344.7373377527274, "timestamp": "2025-12-27T09:28:55.187379+00:00", "meta": {"OBJECT_NAME": "STARLINK-35701", "OBJECT_ID": "2025-299S", "EPOCH": "2025-12-27T04:00:01.998720", "MEAN_MOTION": 15.76438253, "ECCENTRICITY": 0.0001865, "INCLINATION": 42.9987, "RA_OF_ASC_NODE": 228.221, "ARG_OF_PERICENTER": 277.5816, "MEAN_ANOMALY": 78.6331, "EPHEMERIS_TYPE": 0, "CLASSIFICATION_TYPE": "U", "NORAD_CAT_ID": 67118, "ELEMENT_SET_NO": 999, "REV_AT_EPOCH": 308, "BSTAR": -0.012289, "MEAN_MOTION_DOT": -0.01766498, "MEAN_MOTION_DDOT": 0}, "tle": {"line1": "1 67118U 25299S   25361.16668980 -.01766498  00000+0 -12289-1 0  9996", "line2": "2 67118  42.9987 228.2210 0001865 277.5816  78.6331 15.76438253  3080"}}, "geometry": {"type": "Point", "coordinates": [72.80811601777903, -22.20065704991501]}}, {"type": "Feature", "properties": {"norad_id": 67119, "name": "STARLINK-36179", "group": "last-30-days", "lat": -24.059832582168784, "lon": 75.45589148966883, "alt_km": 344.69875468553437, "timestamp": "2025-12-27T09:28:55.187409+00:00", "meta": {"OBJECT_NAME": "STARLINK-36179", "OBJECT_ID": "2025-299T", "EPOCH": "2025-12-27T04:00:01.998720", "MEAN_MOTION": 15.76477036, "ECCENTRICITY": 0.000174, "INCLINATION": 42.9985, "RA_OF_ASC_NODE": 228.2129, "ARG_OF_PERICENTER": 274.6526, "MEAN_ANOMALY": 84.6017, "EPHEMERIS_TYPE": 0, "CLASSIFICATION_TYPE": "U", "NORAD_CAT_ID": 67119, "ELEMENT_SET_NO": 999, "REV_AT_EPOCH": 312, "BSTAR": -0.012336, "MEAN_MOTION_DOT": -0.01775038, "MEAN_MOTION_DDOT": 0}, "tle": {"line1": "1 67119U 25299T   25361.16668980 -.01775038  00000+0 -12336-1 0  9990", "line2": "2 67119  42.9985 228.2129 0001740 274.6526  84.6017 15.76477036  3121"}}, "geometry": {"type": "Point", "coordinates": [75.45589148966883, -24.059832582168784]}}, {"type": "Feature", "properties": {"norad_id": 67120, "name": "STARLINK-36217", "group": "last-30-days", "lat": -23.177468564525466, "lon": 74.1826856740408, "alt_km": 344.6182029431875, "timestamp": "2025-12-27T09:28:55.187420+00:00", "meta": {"OBJECT_NAME": "STARLINK-36217", "OBJECT_ID": "2025-299U", "EPOCH": "2025-12-27T04:00:01.998720", "MEAN_MOTION": 15.76453621, "ECCENTRICITY": 0.0001951, "INCLINATION": 42.9987, "RA_OF_ASC_NODE": 228.2174, "ARG_OF_PERICENTER": 273.4131, "MEAN_ANOMALY": 84.3942, "EPHEMERIS_TYPE": 0, "CLASSIFICATION_TYPE": "U", "NORAD_CAT_ID": 67120, "ELEMENT_SET_NO": 999, "REV_AT_EPOCH": 312, "BSTAR": -0.012307, "MEAN_MOTION_DOT": -0.01769884, "MEAN_MOTION_DDOT": 0}, "tle": {"line1": "1 67120U 25299U   25361.16668980 -.01769884  00000+0 -12307-1 0  9992", "line2": "2 67120  42.9987 228.2174 0001951 273.4131  84.3942 15.76453621  3126"}}, "geometry": {"type": "Point", "coordinates": [74.1826856740408, -23.177468564525466]}}, {"type": "Feature", "properties": {"norad_id": 67121, "name": "STARLINK-36124", "group": "last-30-days", "lat": -26.15311758367299, "lon": 78.61869415860848, "alt_km": 344.8016611988778, "timestamp": "2025-12-27T09:28:55.187430+00:00", "meta": {"OBJECT_NAME": "STARLINK-36124", "OBJECT_ID": "2025-299V", "EPOCH": "2025-12-27T04:00:01.998720", "MEAN_MOTION": 15.764823, "ECCENTRICITY": 0.0001884, "INCLINATION": 42.9987, "RA_OF_ASC_NODE": 228.2044, "ARG_OF_PERICENTER": 279.3627, "MEAN_ANOMALY": 83.443, "EPHEMERIS_TYPE": 0, "CLASSIFICATION_TYPE": "U", "NORAD_CAT_ID": 67121, "ELEMENT_SET_NO": 999, "REV_AT_EPOCH": 312, "BSTAR": -0.012244, "MEAN_MOTION_DOT": -0.01763866, "MEAN_MOTION_DDOT": 0}, "tle": {"line1": "1 67121U 25299V   25361.16668980 -.01763866  00000+0 -12244-1 0  9997", "line2": "2 67121  42.9987 228.2044 0001884 279.3627  83.4430 15.76482300  3121"}}, "geometry": {"type": "Point", "coordinates": [78.61869415860848, -26.15311758367299]}}, {"type": "Feature", "properties": {"norad_id": 67122, "name": "STARLINK-36188", "group": "last-30-days", "lat": -27.07595681939293, "lon": 80.08514408903466, "alt_km": 344.6043574961777, "timestamp": "2025-12-27T09:28:55.187443+00:00", "meta": {"OBJECT_NAME": "STARLINK-36188", "OBJECT_ID": "2025-299W", "EPOCH": "2025-12-27T04:00:01.998720", "MEAN_MOTION": 15.76494527, "ECCENTRICITY": 0.0001962, "INCLINATION": 42.9986, "RA_OF_ASC_NODE": 228.2009, "ARG_OF_PERICENTER": 271.9373, "MEAN_ANOMALY": 92.464, "EPHEMERIS_TYPE": 0, "CLASSIFICATION_TYPE": "U", "NORAD_CAT_ID": 67122, "ELEMENT_SET_NO": 999, "REV_AT_EPOCH": 312, "BSTAR": -0.012227, "MEAN_MOTION_DOT": -0.01762636, "MEAN_MOTION_DDOT": 0}, "tle": {"line1": "1 67122U 25299W   25361.16668980 -.01762636  00000+0 -12227-1 0  9993", "line2": "2 67122  42.9986 228.2009 0001962 271.9373  92.4640 15.76494527  3122"}}, "geometry": {"type": "Point", "coordinates": [80.08514408903466, -27.07595681939293]}}]}